STARLINK-30327          
1 57707U 23129K   26068.51769668  .00007635  00000+0  29314-3 0  9995
2 57707  42.9974  85.9834 0023030  70.8320 289.5022 15.26626807140903
STARLINK-35633          
1 66162U 25240S   26068.25716431  .00013266  00000+0  45942-3 0  9999
2 66162  53.1605  64.7039 0001484 115.4098 244.7056 15.30186772 21929
